start=new Date('2022-08-04T00:00:00.000Z').valueOf();
sats=[{"MEAN_ELEMENT_THEORY":"SGP4","SITE":"AFETR","NORAD_CAT_ID":"52371","APOAPSIS":"523.175","MEAN_MOTION":"15.14698190","TIME_SYSTEM":"UTC","FILE":"3528364","ELEMENT_SET_NO":"999","OBJECT_ID":"2022-045AS","SEMIMAJOR_AXIS":"6900.032","PERIOD":"95.068","PERIAPSIS":"520.619","CENTER_NAME":"EARTH","TLE_LINE2":"2 52371  53.2174 328.4240 0001852  38.3389  39.1968 15.14698190  1309","OBJECT_NAME":"STARLINK-3798","RCS_SIZE":"LARGE","GP_ID":"209497205","TLE_LINE1":"1 52371U 22045AS  22215.58334491 -.01077050  00000-0 -62085-1 0  9994","CLASSIFICATION_TYPE":"U","OBJECT_TYPE":"PAYLOAD","ECCENTRICITY":"0.00018520","INCLINATION":"53.2174","EPHEMERIS_TYPE":"0","MEAN_MOTION_DOT":"-0.01077050","REF_FRAME":"TEME","ARG_OF_PERICENTER":"38.3389","LAUNCH_DATE":"2022-04-29","EPOCH":"2022-08-03T14:00:01.000224","MEAN_ANOMALY":"39.1968","COUNTRY_CODE":"US","RA_OF_ASC_NODE":"328.4240","REV_AT_EPOCH":"130","DECAY_DATE":null,"BSTAR":"-0.06208500000000","MEAN_MOTION_DDOT":"0.0000000000000"},{"RCS_SIZE":"LARGE","OBJECT_NAME":"STARLINK-3796","TLE_LINE2":"2 52372  53.2175 328.4287 0001689  48.2056  63.6493 15.15282360  1305","CENTER_NAME":"EARTH","PERIAPSIS":"518.958","OBJECT_TYPE":"PAYLOAD","CLASSIFICATION_TYPE":"U","TLE_LINE1":"1 52372U 22045AT  22215.58334491 -.01076385  00000-0 -61022-1 0  9995","GP_ID":"209496873","FILE":"3528364","ELEMENT_SET_NO":"999","OBJECT_ID":"2022-045AT","APOAPSIS":"521.289","TIME_SYSTEM":"UTC","MEAN_MOTION":"15.15282360","SITE":"AFETR","NORAD_CAT_ID":"52372","MEAN_ELEMENT_THEORY":"SGP4","SEMIMAJOR_AXIS":"6898.258","PERIOD":"95.032","COUNTRY_CODE":"US","MEAN_ANOMALY":"63.6493","MEAN_MOTION_DDOT":"0.0000000000000","DECAY_DATE":null,"BSTAR":"-0.06102200000000","RA_OF_ASC_NODE":"328.4287","REV_AT_EPOCH":"130","REF_FRAME":"TEME","MEAN_MOTION_DOT":"-0.01076385","EPHEMERIS_TYPE":"0","INCLINATION":"53.2175","ECCENTRICITY":"0.00016890","EPOCH":"2022-08-03T14:00:01.000224","LAUNCH_DATE":"2022-04-29","ARG_OF_PERICENTER":"48.2056"},{"FILE":"3528364","ELEMENT_SET_NO":"999","OBJECT_ID":"2022-045AU","APOAPSIS":"518.521","TIME_SYSTEM":"UTC","MEAN_MOTION":"15.16180074","SITE":"AFETR","NORAD_CAT_ID":"52373","MEAN_ELEMENT_THEORY":"SGP4","PERIOD":"94.976","SEMIMAJOR_AXIS":"6895.535","RCS_SIZE":"LARGE","OBJECT_NAME":"STARLINK-3550","CENTER_NAME":"EARTH","PERIAPSIS":"516.279","TLE_LINE2":"2 52373  53.2175 328.4355 0001626  56.6454 105.4240 15.16180074 17535","OBJECT_TYPE":"PAYLOAD","TLE_LINE1":"1 52373U 22045AU  22215.58334491 -.01074949  00000-0 -59391-1 0  9996","CLASSIFICATION_TYPE":"U","GP_ID":"209496308","MEAN_MOTION_DOT":"-0.01074949","REF_FRAME":"TEME","EPHEMERIS_TYPE":"0","INCLINATION":"53.2175","ECCENTRICITY":"0.00016260","EPOCH":"2022-08-03T14:00:01.000224","LAUNCH_DATE":"2022-04-29","ARG_OF_PERICENTER":"56.6454","COUNTRY_CODE":"US","MEAN_ANOMALY":"105.4240","BSTAR":"-0.05939100000000","DECAY_DATE":null,"MEAN_MOTION_DDOT":"0.0000000000000","REV_AT_EPOCH":"1753","RA_OF_ASC_NODE":"328.4355"},{"OBJECT_TYPE":"PAYLOAD","TLE_LINE1":"1 52374U 22045AV  22215.58334491 -.01075401  00000-0 -59921-1 0  9990","CLASSIFICATION_TYPE":"U","GP_ID":"209496361","RCS_SIZE":"LARGE","OBJECT_NAME":"STARLINK-3762","PERIAPSIS":"517.117","CENTER_NAME":"EARTH","TLE_LINE2":"2 52374  53.2175 328.4334 0001708  50.3765  95.0483 15.15885143  1309","SEMIMAJOR_AXIS":"6896.430","PERIOD":"94.994","ELEMENT_SET_NO":"999","FILE":"3528364","OBJECT_ID":"2022-045AV","APOAPSIS":"519.473","MEAN_MOTION":"15.15885143","TIME_SYSTEM":"UTC","NORAD_CAT_ID":"52374","SITE":"AFETR","MEAN_ELEMENT_THEORY":"SGP4","BSTAR":"-0.05992100000000","DECAY_DATE":null,"MEAN_MOTION_DDOT":"0.0000000000000","REV_AT_EPOCH":"130","RA_OF_ASC_NODE":"328.4334","COUNTRY_CODE":"US","MEAN_ANOMALY":"95.0483","EPOCH":"2022-08-03T14:00:01.000224","LAUNCH_DATE":"2022-04-29","ARG_OF_PERICENTER":"50.3765","MEAN_MOTION_DOT":"-0.01075401","REF_FRAME":"TEME","EPHEMERIS_TYPE":"0","INCLINATION":"53.2175","ECCENTRICITY":"0.00017080"},{"SEMIMAJOR_AXIS":"6874.816","PERIOD":"94.548","FILE":"3528364","ELEMENT_SET_NO":"999","OBJECT_ID":"2022-045AW","APOAPSIS":"497.711","TIME_SYSTEM":"UTC","MEAN_MOTION":"15.23039557","NORAD_CAT_ID":"52375","SITE":"AFETR","MEAN_ELEMENT_THEORY":"SGP4","OBJECT_TYPE":"PAYLOAD","TLE_LINE1":"1 52375U 22045AW  22215.58334491 -.00722240  00000-0 -32481-1 0  9992","CLASSIFICATION_TYPE":"U","GP_ID":"209497078","RCS_SIZE":"LARGE","OBJECT_NAME":"STARLINK-3785","CENTER_NAME":"EARTH","PERIAPSIS":"495.650","TLE_LINE2":"2 52375  53.2173 328.8191 0001499  56.6964 230.4244 15.23039557 17531","EPOCH":"2022-08-03T14:00:01.000224","LAUNCH_DATE":"2022-04-29","ARG_OF_PERICENTER":"56.6964","MEAN_MOTION_DOT":"-0.00722240","REF_FRAME":"TEME","EPHEMERIS_TYPE":"0","INCLINATION":"53.2173","ECCENTRICITY":"0.00014990","BSTAR":"-0.03248100000000","DECAY_DATE":null,"MEAN_MOTION_DDOT":"0.0000000000000","RA_OF_ASC_NODE":"328.8191","REV_AT_EPOCH":"1753","COUNTRY_CODE":"US","MEAN_ANOMALY":"230.4244"},{"FILE":"3528364","ELEMENT_SET_NO":"999","OBJECT_ID":"2022-045AX","TIME_SYSTEM":"UTC","APOAPSIS":"520.483","MEAN_MOTION":"15.15523090","SITE":"AFETR","NORAD_CAT_ID":"52376","MEAN_ELEMENT_THEORY":"SGP4","SEMIMAJOR_AXIS":"6897.528","PERIOD":"95.017","RCS_SIZE":"LARGE","OBJECT_NAME":"STARLINK-3767","TLE_LINE2":"2 52376  53.2174 328.2485 0001581  53.4968 221.0836 15.15523090  1306","PERIAPSIS":"518.302","CENTER_NAME":"EARTH","OBJECT_TYPE":"PAYLOAD","CLASSIFICATION_TYPE":"U","TLE_LINE1":"1 52376U 22045AX  22215.58334491 -.01073676  00000-0 -60441-1 0  9993","GP_ID":"209496489","REF_FRAME":"TEME","MEAN_MOTION_DOT":"-0.01073676","INCLINATION":"53.2174","EPHEMERIS_TYPE":"0","ECCENTRICITY":"0.00015810","EPOCH":"2022-08-03T14:00:01.000224","LAUNCH_DATE":"2022-04-29","ARG_OF_PERICENTER":"53.4968","COUNTRY_CODE":"US","MEAN_ANOMALY":"221.0836","MEAN_MOTION_DDOT":"0.0000000000000","BSTAR":"-0.06044100000000","DECAY_DATE":null,"RA_OF_ASC_NODE":"328.2485","REV_AT_EPOCH":"130"},{"COUNTRY_CODE":"US","MEAN_ANOMALY":"131.0086","RA_OF_ASC_NODE":"328.4368","REV_AT_EPOCH":"130","DECAY_DATE":null,"BSTAR":"-0.05899500000000","MEAN_MOTION_DDOT":"0.0000000000000","ECCENTRICITY":"0.00018900","MEAN_MOTION_DOT":"-0.01074466","REF_FRAME":"TEME","EPHEMERIS_TYPE":"0","INCLINATION":"53.2175","ARG_OF_PERICENTER":"43.3294","EPOCH":"2022-08-03T14:00:01.000224","LAUNCH_DATE":"2022-04-29","OBJECT_NAME":"STARLINK-3805","PERIAPSIS":"515.446","CENTER_NAME":"EARTH","TLE_LINE2":"2 52377  53.2175 328.4368 0001890  43.3294 131.0086 15.16394857  1308","RCS_SIZE":"LARGE","GP_ID":"209496693","OBJECT_TYPE":"PAYLOAD","TLE_LINE1":"1 52377U 22045AY  22215.58334491 -.01074466  00000-0 -58995-1 0  9993","CLASSIFICATION_TYPE":"U","NORAD_CAT_ID":"52377","SITE":"AFETR","MEAN_ELEMENT_THEORY":"SGP4","FILE":"3528364","OBJECT_ID":"2022-045AY","ELEMENT_SET_NO":"999","APOAPSIS":"518.052","TIME_SYSTEM":"UTC","MEAN_MOTION":"15.16394857","SEMIMAJOR_AXIS":"6894.884","PERIOD":"94.962"},{"BSTAR":"-0.05785300000000","DECAY_DATE":null,"MEAN_MOTION_DDOT":"0.0000000000000","RA_OF_ASC_NODE":"328.4407","REV_AT_EPOCH":"1753","COUNTRY_CODE":"US","MEAN_ANOMALY":"163.8733","EPOCH":"2022-08-03T14:00:01.000224","LAUNCH_DATE":"2022-04-29","ARG_OF_PERICENTER":"47.4722","MEAN_MOTION_DOT":"-0.01073796","REF_FRAME":"TEME","EPHEMERIS_TYPE":"0","INCLINATION":"53.2175","ECCENTRICITY":"0.00017890","OBJECT_TYPE":"PAYLOAD","TLE_LINE1":"1 52378U 22045AZ  22215.58334491 -.01073796  00000-0 -57853-1 0  9991","CLASSIFICATION_TYPE":"U","GP_ID":"209496746","RCS_SIZE":"LARGE","OBJECT_NAME":"STARLINK-3806","PERIAPSIS":"513.525","CENTER_NAME":"EARTH","TLE_LINE2":"2 52378  53.2175 328.4407 0001789  47.4722 163.8733 15.17052066 17539","SEMIMAJOR_AXIS":"6892.893","PERIOD":"94.921","FILE":"3528364","OBJECT_ID":"2022-045AZ","ELEMENT_SET_NO":"999","MEAN_MOTION":"15.17052066","APOAPSIS":"515.991","TIME_SYSTEM":"UTC","NORAD_CAT_ID":"52378","SITE":"AFETR","MEAN_ELEMENT_THEORY":"SGP4"},{"COUNTRY_CODE":"US","MEAN_ANOMALY":"144.5051","REV_AT_EPOCH":"1753","RA_OF_ASC_NODE":"328.4390","BSTAR":"-0.05836100000000","DECAY_DATE":null,"MEAN_MOTION_DDOT":"0.0000000000000","ECCENTRICITY":"0.00017370","MEAN_MOTION_DOT":"-0.01074037","REF_FRAME":"TEME","EPHEMERIS_TYPE":"0","INCLINATION":"53.2175","ARG_OF_PERICENTER":"50.6029","EPOCH":"2022-08-03T14:00:01.000224","LAUNCH_DATE":"2022-04-29","OBJECT_NAME":"STARLINK-3800","PERIAPSIS":"514.454","CENTER_NAME":"EARTH","TLE_LINE2":"2 52379  53.2175 328.4390 0001737  50.6029 144.5051 15.16756976 17539","RCS_SIZE":"LARGE","GP_ID":"209497206","OBJECT_TYPE":"PAYLOAD","TLE_LINE1":"1 52379U 22045BA  22215.58334491 -.01074037  00000-0 -58361-1 0  9996","CLASSIFICATION_TYPE":"U","SITE":"AFETR","NORAD_CAT_ID":"52379","MEAN_ELEMENT_THEORY":"SGP4","FILE":"3528364","ELEMENT_SET_NO":"999","OBJECT_ID":"2022-045BA","MEAN_MOTION":"15.16756976","APOAPSIS":"516.849","TIME_SYSTEM":"UTC","SEMIMAJOR_AXIS":"6893.787","PERIOD":"94.939"},{"SEMIMAJOR_AXIS":"6772.336","PERIOD":"92.442","NORAD_CAT_ID":"52380","SITE":"AFETR","MEAN_ELEMENT_THEORY":"SGP4","ELEMENT_SET_NO":"999","FILE":"3528364","OBJECT_ID":"2022-045BB","MEAN_MOTION":"15.57740153","APOAPSIS":"395.102","TIME_SYSTEM":"UTC","GP_ID":"209496874","OBJECT_TYPE":"PAYLOAD","CLASSIFICATION_TYPE":"U","TLE_LINE1":"1 52380U 22045BB  22215.58334491 -.01062440  00000-0 -15457-1 0  9992","OBJECT_NAME":"STARLINK-3793","TLE_LINE2":"2 52380  53.2173 322.9548 0001330  56.0152 227.6523 15.57740153  1309","PERIAPSIS":"393.300","CENTER_NAME":"EARTH","RCS_SIZE":"LARGE","ARG_OF_PERICENTER":"56.0152","EPOCH":"2022-08-03T14:00:01.000224","LAUNCH_DATE":"2022-04-29","ECCENTRICITY":"0.00013300","REF_FRAME":"TEME","MEAN_MOTION_DOT":"-0.01062440","EPHEMERIS_TYPE":"0","INCLINATION":"53.2173","RA_OF_ASC_NODE":"322.9548","REV_AT_EPOCH":"130","MEAN_MOTION_DDOT":"0.0000000000000","BSTAR":"-0.01545700000000","DECAY_DATE":null,"COUNTRY_CODE":"US","MEAN_ANOMALY":"227.6523"}];
